{
    "links": {
        "self": "http://www.neowsapp.com/rest/v1/neo/3624903?api_key=iIulBulltgU6a56xZRHN4H3l9WmuAYTsLGpBGhQ2"
    },
    "id": "3624903",
    "neo_reference_id": "3624903",
    "name": "(2013 BH27)",
    "designation": "2013 BH27",
    "nasa_jpl_url": "http://ssd.jpl.nasa.gov/sbdb.cgi?sstr=3624903",
    "absolute_magnitude_h": 26.6,
    "estimated_diameter": {
        "kilometers": {
            "estimated_diameter_min": 0.0127219879,
            "estimated_diameter_max": 0.0284472297
        },
        "meters": {
            "estimated_diameter_min": 12.7219878539,
            "estimated_diameter_max": 28.4472296503
        },
        "miles": {
            "estimated_diameter_min": 0.0079050743,
            "estimated_diameter_max": 0.0176762835
        },
        "feet": {
            "estimated_diameter_min": 41.7388066307,
            "estimated_diameter_max": 93.330808926
        }
    },
    "is_potentially_hazardous_asteroid": false,
    "close_approach_data": [
        {
            "close_approach_date": "2013-01-22",
            "close_approach_date_full": "2013-Jan-22 02:24",
            "epoch_date_close_approach": 1358821440000,
            "relative_velocity": {
                "kilometers_per_second": "6.2555178021",
                "kilometers_per_hour": "22519.8640876337",
                "miles_per_hour": "13992.9677715633"
            },
            "miss_distance": {
                "astronomical": "0.0275774782",
                "lunar": "10.7276390198",
                "kilometers": "4125531.998691434",
                "miles": "2563486.7135284292"
            },
            "orbiting_body": "Earth"
        }
    ],
    "orbital_data": {
        "orbit_id": "5",
        "orbit_determination_date": "2019-07-16 06:15:05",
        "first_observation_date": "2013-01-17",
        "last_observation_date": "2013-01-20",
        "data_arc_in_days": 3,
        "observations_used": 14,
        "orbit_uncertainty": "8",
        "minimum_orbit_intersection": ".0214981",
        "jupiter_tisserand_invariant": "3.931",
        "epoch_osculation": "2456310.5",
        "eccentricity": ".4458944397399472",
        "semi_major_axis": "1.808349978734098",
        "inclination": "3.192723231675513",
        "ascending_node_longitude": "117.7887047569054",
        "orbital_period": "888.2232866901552",
        "perihelion_distance": "1.002016778112712",
        "perihelion_argument": "16.89410687110568",
        "aphelion_distance": "2.614683179355484",
        "perihelion_time": "2456324.772187954802",
        "mean_anomaly": "354.2154323797626",
        "mean_motion": ".4053034922575512",
        "equinox": "J2000",
        "orbit_class": {
            "orbit_class_type": "APO",
            "orbit_class_description": "Near-Earth asteroid orbits which cross the Earth’s orbit similar to that of 1862 Apollo",
            "orbit_class_range": "a (semi-major axis) > 1.0 AU; q (perihelion) < 1.017 AU"
        }
    },
    "is_sentry_object": false
}